{"type":"FeatureCollection","features":[{"type":"Feature","id":0,"geometry":{"type":"Polygon","coordinates":[[[-83.037189466780148,42.374615468009708],[-83.036918392351296,42.37416351133065],[-83.036764200968918,42.374219182763426],[-83.037045653579966,42.374665074715708],[-83.037189466780148,42.374615468009708]]]},"properties":{"FID":0,"Shape_Leng":136.812447932,"Shape_Area":744.94690262899996,"Site_Name":"E. Grand Blvd Gateway","Year_Est":0}},{"type":"Feature","id":1,"geometry":{"type":"Polygon","coordinates":[[[-83.03791644939939,42.373794854193349],[-83.037633682900122,42.373390156562586],[-83.036453006385756,42.373834590728201],[-83.036711542507703,42.374225999229282],[-83.03791644939939,42.373794854193349]]]},"properties":{"FID":1,"Shape_Leng":318.275670682,"Shape_Area":5427.3863108300002,"Site_Name":"Circle Forest","Year_Est":0}},{"type":"Feature","id":2,"geometry":{"type":"Polygon","coordinates":[[[-83.03586621029207,42.370738577991524],[-83.035628396551758,42.370366760945565],[-83.035280438078857,42.370484731323295],[-83.035525463863237,42.370857626840881],[-83.03586621029207,42.370738577991524]]]},"properties":{"FID":2,"Shape_Leng":154.32002459099999,"Shape_Area":1434.7824225100001,"Site_Name":"Treetroit One","Year_Est":0}},{"type":"Feature","id":3,"geometry":{"type":"Polygon","coordinates":[[[-83.036003224357771,42.370932362394598],[-83.035926354768563,42.370812178215552],[-83.035583177983327,42.370930064567055],[-83.035658880139167,42.371051156759613],[-83.036003224357771,42.370932362394598]]]},"properties":{"FID":3,"Shape_Leng":92.031306959299997,"Shape_Area":461.98231988800001,"Site_Name":"Treetroit One","Year_Est":0}},{"type":"Feature","id":4,"geometry":{"type":"Polygon","coordinates":[[[-83.035492082714271,42.369369281699015],[-83.035294750397085,42.369075566005918],[-83.034994085746206,42.369175838107864],[-83.035203489462873,42.369472888141402],[-83.035492082714271,42.369369281699015]]]},"properties":{"FID":4,"Shape_Leng":127.24261502100001,"Shape_Area":985.85966826900005,"Site_Name":"Nursery","Year_Est":0}},{"type":"Feature","id":5,"geometry":{"type":"Polygon","coordinates":[[[-83.035507187821466,42.368940982905457],[-83.03532189234636,42.368644836281568],[-83.034756517012283,42.368851728017113],[-83.034956577687069,42.369142068661269],[-83.035507187821466,42.368940982905457]]]},"properties":{"FID":5,"Shape_Leng":174.96043960399999,"Shape_Area":1856.5746024600001,"Site_Name":"Treetroit Two","Year_Est":0}},{"type":"Feature","id":6,"geometry":{"type":"Polygon","coordinates":[[[-83.033453265211534,42.372306664691671],[-83.03353681315734,42.372431970544802],[-83.033891500152436,42.372303752991044],[-83.033805395151958,42.372182511052259],[-83.033453265211534,42.372306664691671]]]},"properties":{"FID":6,"Shape_Leng":95.359259283599997,"Shape_Area":496.47503300400001,"Site_Name":"MoKirby Sequoia Grove","Year_Est":0}},{"type":"Feature","id":7,"geometry":{"type":"Polygon","coordinates":[[[-83.034053836340561,42.368238771755443],[-83.032820829814781,42.368683157127542],[-83.033030268876502,42.368985362654342],[-83.033508390721749,42.368814886346335],[-83.033726438023251,42.369112279264797],[-83.033898771420411,42.3690477067559],[-83.033693275323202,42.368743783050306],[-83.03423333984891,42.36853979712847],[-83.034053836340561,42.368238771755443]]]},"properties":{"FID":7,"Shape_Leng":372.10243542400002,"Shape_Area":4808.64832647,"Site_Name":"Filter Forest","Year_Est":0}},{"type":"Feature","id":8,"geometry":{"type":"Polygon","coordinates":[[[-83.034470877895885,42.373124367529783],[-83.034377009257454,42.372981628926091],[-83.034008146563494,42.37311814062992],[-83.03410193692865,42.373258473740563],[-83.034470877895885,42.373124367529783]]]},"properties":{"FID":8,"Shape_Leng":102.829934041,"Shape_Area":593.79492788200002,"Site_Name":"Land Back, Noojimo'waning: A Place of Healing","Year_Est":0}},{"type":"Feature","id":9,"geometry":{"type":"Polygon","coordinates":[[[-83.034047861710562,42.373280116552003],[-83.03373364454518,42.372815624745975],[-83.032974105243682,42.373088578613554],[-83.033276071568366,42.373566451465017],[-83.034047861710562,42.373280116552003]]]},"properties":{"FID":9,"Shape_Leng":256.93007431299998,"Shape_Area":4088.5159511900001,"Site_Name":"Land Back, Noojimo'waning: A Place of Healing","Year_Est":0}},{"type":"Feature","id":10,"geometry":{"type":"Polygon","coordinates":[[[-83.037013323925649,42.373020629930338],[-83.03724307213632,42.373375379452938],[-83.037549291154676,42.373267030986057],[-83.037321979093917,42.372912466610003],[-83.037013323925649,42.373020629930338]]]},"properties":{"FID":10,"Shape_Leng":143.37961793900001,"Shape_Area":1223.78948612,"Site_Name":"Spruce Grove","Year_Est":0}},{"type":"Feature","id":11,"geometry":{"type":"Polygon","coordinates":[[[-83.035854800507948,42.371441091411128],[-83.035666663077009,42.371507459608431],[-83.035826974306886,42.371747693476493],[-83.03601487686494,42.371686593835165],[-83.035854800507948,42.371441091411128]]]},"properties":{"FID":11,"Shape_Leng":94.119317571300002,"Shape_Area":511.154609048,"Site_Name":"Tree House Arboretum Hub","Year_Est":0}},{"type":"Feature","id":12,"geometry":{"type":"Polygon","coordinates":[[[-83.035407276108501,42.371150317157934],[-83.035258657861505,42.370934199018713],[-83.033601643451249,42.371544291844849],[-83.033923160528758,42.372030868576481],[-83.034197294053271,42.371936096194702],[-83.034010084732316,42.371643817929289],[-83.035407276108501,42.371150317157934]]]},"properties":{"FID":12,"Shape_Leng":427.82229890399998,"Shape_Area":4821.2235224400001,"Site_Name":"Oxygen Alley","Year_Est":0}},{"type":"Feature","id":13,"geometry":{"type":"Polygon","coordinates":[[[-83.03543998129544,42.371506463404195],[-83.035609508708774,42.371444399379882],[-83.035407276108501,42.371150317157934],[-83.035239204401748,42.371208551085992],[-83.03543998129544,42.371506463404195]]]},"properties":{"FID":13,"Shape_Leng":104.510338683,"Shape_Area":567.97434109599999,"Site_Name":"Bird Return","Year_Est":0}}]}